{
  "type": "FeatureCollection",
  "features": [
    {
      "type": "Feature",
      "properties": {
        "norad_id": 66940,
        "name": "STARLINK-36121",
        "group": "last-30-days",
        "lat": 51.781933685004255,
        "lon": 99.53516082091927,
        "alt_km": 367.43404795915194,
        "timestamp": "2025-12-24T11:32:58.720638+00:00",
        "meta_object_name": "STARLINK-36121",
        "meta_object_id": "2025-286R",
        "meta_epoch": "2025-12-24T04:00:01.998720",
        "meta_mean_motion": 15.65711101,
        "meta_eccentricity": 0.0001436,
        "meta_inclination": 53.1596,
        "meta_ra_of_asc_node": 353.2754,
        "meta_arg_of_pericenter": 81.2793,
        "meta_mean_anomaly": 46.4425,
        "meta_ephemeris_type": 0,
        "meta_classification_type": "U",
        "meta_norad_cat_id": 66940,
        "meta_element_set_no": 999,
        "meta_rev_at_epoch": 382,
        "meta_bstar": -0.022759,
        "meta_mean_motion_dot": -0.02054428,
        "meta_mean_motion_ddot": 0,
        "tle_line1": "1 66940U 25286R   25358.16668980 -.02054428  00000+0 -22759-1 0  9997",
        "tle_line2": "2 66940  53.1596 353.2754 0001436  81.2793  46.4425 15.65711101  3825"
      },
      "geometry": {
        "type": "Point",
        "coordinates": [
          99.53516082091927,
          51.781933685004255
        ]
      }
    },
    {
      "type": "Feature",
      "properties": {
        "norad_id": 66941,
        "name": "STARLINK-36088",
        "group": "last-30-days",
        "lat": 48.731801951629265,
        "lon": 113.02695033908168,
        "alt_km": 362.7110215797884,
        "timestamp": "2025-12-24T11:32:58.720649+00:00",
        "meta_object_name": "STARLINK-36088",
        "meta_object_id": "2025-286S",
        "meta_epoch": "2025-12-24T04:00:01.998720",
        "meta_mean_motion": 15.67434083,
        "meta_eccentricity": 0.0001511,
        "meta_inclination": 53.1597,
        "meta_ra_of_asc_node": 353.2606,
        "meta_arg_of_pericenter": 83.1406,
        "meta_mean_anomaly": 51.7172,
        "meta_ephemeris_type": 0,
        "meta_classification_type": "U",
        "meta_norad_cat_id": 66941,
        "meta_element_set_no": 999,
        "meta_rev_at_epoch": 382,
        "meta_bstar": -0.020238,
        "meta_mean_motion_dot": -0.01971375,
        "meta_mean_motion_ddot": 0,
        "tle_line1": "1 66941U 25286S   25358.16668980 -.01971375  00000+0 -20238-1 0  9996",
        "tle_line2": "2 66941  53.1597 353.2606 0001511  83.1406  51.7172 15.67434083  3820"
      },
      "geometry": {
        "type": "Point",
        "coordinates": [
          113.02695033908168,
          48.731801951629265
        ]
      }
    },
    {
      "type": "Feature",
      "properties": {
        "norad_id": 66942,
        "name": "STARLINK-36100",
        "group": "last-30-days",
        "lat": 51.2749674050941,
        "lon": 102.50639506338928,
        "alt_km": 367.5383064374082,
        "timestamp": "2025-12-24T11:32:58.720659+00:00",
        "meta_object_name": "STARLINK-36100",
        "meta_object_id": "2025-286T",
        "meta_epoch": "2025-12-24T04:00:01.998720",
        "meta_mean_motion": 15.65711468,
        "meta_eccentricity": 0.0001358,
        "meta_inclination": 53.1599,
        "meta_ra_of_asc_node": 353.2713,
        "meta_arg_of_pericenter": 86.6392,
        "meta_mean_anomaly": 42.9987,
        "meta_ephemeris_type": 0,
        "meta_classification_type": "U",
        "meta_norad_cat_id": 66942,
        "meta_element_set_no": 999,
        "meta_rev_at_epoch": 375,
        "meta_bstar": -0.022745,
        "meta_mean_motion_dot": -0.02053315,
        "meta_mean_motion_ddot": 0,
        "tle_line1": "1 66942U 25286T   25358.16668980 -.02053315  00000+0 -22745-1 0  9998",
        "tle_line2": "2 66942  53.1599 353.2713 0001358  86.6392  42.9987 15.65711468  3754"
      },
      "geometry": {
        "type": "Point",
        "coordinates": [
          102.50639506338928,
          51.2749674050941
        ]
      }
    },
    {
      "type": "Feature",
      "properties": {
        "norad_id": 66943,
        "name": "STARLINK-36109",
        "group": "last-30-days",
        "lat": 50.69308482125082,
        "lon": 105.41047726164281,
        "alt_km": 367.63348265375043,
        "timestamp": "2025-12-24T11:32:58.720671+00:00",
        "meta_object_name": "STARLINK-36109",
        "meta_object_id": "2025-286U",
        "meta_epoch": "2025-12-24T04:00:01.998720",
        "meta_mean_motion": 15.65710666,
        "meta_eccentricity": 0.0001349,
        "meta_inclination": 53.1596,
        "meta_ra_of_asc_node": 353.2668,
        "meta_arg_of_pericenter": 87.8585,
        "meta_mean_anomaly": 43.6988,
        "meta_ephemeris_type": 0,
        "meta_classification_type": "U",
        "meta_norad_cat_id": 66943,
        "meta_element_set_no": 999,
        "meta_rev_at_epoch": 375,
        "meta_bstar": -0.022764,
        "meta_mean_motion_dot": -0.02054729,
        "meta_mean_motion_ddot": 0,
        "tle_line1": "1 66943U 25286U   25358.16668980 -.02054729  00000+0 -22764-1 0  9990",
        "tle_line2": "2 66943  53.1596 353.2668 0001349  87.8585  43.6988 15.65710666  3756"
      },
      "geometry": {
        "type": "Point",
        "coordinates": [
          105.41047726164281,
          50.69308482125082
        ]
      }
    },
    {
      "type": "Feature",
      "properties": {
        "norad_id": 66944,
        "name": "STARLINK-36112",
        "group": "last-30-days",
        "lat": 50.042725645600186,
        "lon": 108.23162326632291,
        "alt_km": 367.57036397252705,
        "timestamp": "2025-12-24T11:32:58.720681+00:00",
        "meta_object_name": "STARLINK-36112",
        "meta_object_id": "2025-286V",
        "meta_epoch": "2025-12-24T04:00:01.998720",
        "meta_mean_motion": 15.65697066,
        "meta_eccentricity": 0.0001597,
        "meta_inclination": 53.1594,
        "meta_ra_of_asc_node": 353.2628,
        "meta_arg_of_pericenter": 85.3758,
        "meta_mean_anomaly": 48.0971,
        "meta_ephemeris_type": 0,
        "meta_classification_type": "U",
        "meta_norad_cat_id": 66944,
        "meta_element_set_no": 999,
        "meta_rev_at_epoch": 382,
        "meta_bstar": -0.022483,
        "meta_mean_motion_dot": -0.02031743,
        "meta_mean_motion_ddot": 0,
        "tle_line1": "1 66944U 25286V   25358.16668980 -.02031743  00000+0 -22483-1 0  9990",
        "tle_line2": "2 66944  53.1594 353.2628 0001597  85.3758  48.0971 15.65697066  3828"
      },
      "geometry": {
        "type": "Point",
        "coordinates": [
          108.23162326632291,
          50.042725645600186
        ]
      }
    },
    {
      "type": "Feature",
      "properties": {
        "norad_id": 66945,
        "name": "STARLINK-36110",
        "group": "last-30-days",
        "lat": 49.32239708398747,
        "lon": 110.98644645810577,
        "alt_km": 367.73794702854775,
        "timestamp": "2025-12-24T11:32:58.720697+00:00",
        "meta_object_name": "STARLINK-36110",
        "meta_object_id": "2025-286W",
        "meta_epoch": "2025-12-24T04:00:01.998720",
        "meta_mean_motion": 15.65704546,
        "meta_eccentricity": 0.0001547,
        "meta_inclination": 53.1595,
        "meta_ra_of_asc_node": 353.2588,
        "meta_arg_of_pericenter": 83.2086,
        "meta_mean_anomaly": 52.1824,
        "meta_ephemeris_type": 0,
        "meta_classification_type": "U",
        "meta_norad_cat_id": 66945,
        "meta_element_set_no": 999,
        "meta_rev_at_epoch": 382,
        "meta_bstar": -0.02264,
        "meta_mean_motion_dot": -0.02044646,
        "meta_mean_motion_ddot": 0,
        "tle_line1": "1 66945U 25286W   25358.16668980 -.02044646  00000+0 -22640-1 0  9992",
        "tle_line2": "2 66945  53.1595 353.2588 0001547  83.2086  52.1824 15.65704546  3826"
      },
      "geometry": {
        "type": "Point",
        "coordinates": [
          110.98644645810577,
          49.32239708398747
        ]
      }
    },
    {
      "type": "Feature",
      "properties": {
        "norad_id": 66946,
        "name": "STARLINK-36115",
        "group": "last-30-days",
        "lat": 48.54132555935336,
        "lon": 113.64866619546173,
        "alt_km": 367.85800280719104,
        "timestamp": "2025-12-24T11:32:58.720707+00:00",
        "meta_object_name": "STARLINK-36115",
        "meta_object_id": "2025-286X",
        "meta_epoch": "2025-12-24T04:00:01.998720",
        "meta_mean_motion": 15.65695215,
        "meta_eccentricity": 0.0001564,
        "meta_inclination": 53.1596,
        "meta_ra_of_asc_node": 353.2548,
        "meta_arg_of_pericenter": 82.0273,
        "meta_mean_anomaly": 55.2819,
        "meta_ephemeris_type": 0,
        "meta_classification_type": "U",
        "meta_norad_cat_id": 66946,
        "meta_element_set_no": 999,
        "meta_rev_at_epoch": 382,
        "meta_bstar": -0.022474,
        "meta_mean_motion_dot": -0.02030906,
        "meta_mean_motion_ddot": 0,
        "tle_line1": "1 66946U 25286X   25358.16668980 -.02030906  00000+0 -22474-1 0  9992",
        "tle_line2": "2 66946  53.1596 353.2548 0001564  82.0273  55.2819 15.65695215  3828"
      },
      "geometry": {
        "type": "Point",
        "coordinates": [
          113.64866619546173,
          48.54132555935336
        ]
      }
    }
  ]
}